QIANFAN-65              
1 62795U 25016L   26194.88450970  .00000084  00000+0  11150-3 0  9998
2 62795  88.9701  80.9204 0016010  86.0578 274.2403 13.51029801 76026
QIANFAN-66              
1 62796U 25016M   26194.83934578  .00000108  00000+0  14846-3 0  9997
2 62796  88.9720  80.9371 0017124  82.4438 277.8658 13.51023025 76062
QIANFAN-67              
1 62797U 25016N   26194.84343141  .00000086  00000+0  11352-3 0  9993
2 62797  88.9711  80.9413 0017064  88.4264 271.8841 13.51011647 76038
QIANFAN-68              
1 62798U 25016P   26194.83505017  .00000084  00000+0  11066-3 0  9995
2 62798  88.9714  80.9949 0017151  86.5739 273.7373 13.51024334 76015
QIANFAN-69              
1 62799U 25016Q   26194.85149167  .00000089  00000+0  11822-3 0  9993
2 62799  88.9693  80.8172 0017880  87.8542 272.4656 13.51018181 76051
QIANFAN-70              
1 62800U 25016R   26194.86802222  .00000101  00000+0  13726-3 0  9995
2 62800  88.9714  80.9985 0017515  79.3206 280.9916 13.51016565 76012
QIANFAN-71              
1 62801U 25016S   26194.86402845  .00000103  00000+0  14011-3 0  9993
2 62801  88.9707  80.9656 0017765  90.9954 269.3233 13.51010911 76018
QIANFAN-72              
1 62802U 25016T   26194.88031561  .00000090  00000+0  12014-3 0  9995
2 62802  88.9698  80.9564 0020947  97.7360 262.6171 13.51014055 76007
QIANFAN-73              
1 63159U 25046A   26194.83323068  .00000101  00000+0  13839-3 0  9994
2 63159  88.9723 297.9149 0013928 219.8240 140.1890 13.51014531 76182
QIANFAN-74              
1 63160U 25046B   26194.81697751  .00000091  00000+0  12172-3 0  9994
2 63160  88.9723 297.8063 0002510 106.4407 253.7020 13.51022284 76246
QIANFAN-75              
1 63161U 25046C   26194.80454551  .00000105  00000+0  14420-3 0  9997
2 63161  88.9724 298.0442 0014903 223.7884 136.2086 13.51014950 76117
QIANFAN-76              
1 63162U 25046D   26194.80038012  .00000115  00000+0  15996-3 0  9998
2 63162  88.9724 298.0245 0012443 222.9378 137.0802 13.51013559 76125
QIANFAN-77              
1 63163U 25046E   26194.82939370  .00000198  00000+0  13409-3 0  9996
2 63163  88.9727 294.2733 0017023 131.2998 228.9648 13.96220919 78183
QIANFAN-78              
1 63164U 25046F   26194.84156948  .00000107  00000+0  14720-3 0  9998
2 63164  88.9724 297.8822 0013724 225.8600 134.1424 13.51008882 76208
QIANFAN-79              
1 63165U 25046G   26194.79627500  .00000107  00000+0  14770-3 0  9995
2 63165  88.9727 298.0021 0013576 224.3047 135.7019 13.51019116 76142
QIANFAN-80              
1 63166U 25046H   26194.81282186  .00000098  00000+0  13321-3 0  9996
2 63166  88.9724 297.7015 0012275 228.4426 131.5673 13.51016306 76306
