{"fetched_at":"2026-07-14T06:34:25.665Z","source":"https://celestrak.org/NORAD/elements/gp.php?GROUP=qianfan&FORMAT=JSON","constellation":"qianfan","records":[{"OBJECT_NAME":"QIANFAN-65","OBJECT_ID":"2025-016L","EPOCH":"2026-07-13T21:13:41.638080","CLASSIFICATION_TYPE":"U","MEAN_MOTION":13.51029801,"ECCENTRICITY":0.001601,"INCLINATION":88.9701,"RA_OF_ASC_NODE":80.9204,"ARG_OF_PERICENTER":86.0578,"MEAN_ANOMALY":274.2403,"EPHEMERIS_TYPE":0,"NORAD_CAT_ID":62795,"ELEMENT_SET_NO":999,"REV_AT_EPOCH":7602,"BSTAR":0.0001115,"MEAN_MOTION_DOT":8.4e-7,"MEAN_MOTION_DDOT":0},{"OBJECT_NAME":"QIANFAN-66","OBJECT_ID":"2025-016M","EPOCH":"2026-07-13T20:08:39.475392","CLASSIFICATION_TYPE":"U","MEAN_MOTION":13.51023025,"ECCENTRICITY":0.0017124,"INCLINATION":88.972,"RA_OF_ASC_NODE":80.9371,"ARG_OF_PERICENTER":82.4438,"MEAN_ANOMALY":277.8658,"EPHEMERIS_TYPE":0,"NORAD_CAT_ID":62796,"ELEMENT_SET_NO":999,"REV_AT_EPOCH":7606,"BSTAR":0.00014846,"MEAN_MOTION_DOT":0.00000108,"MEAN_MOTION_DDOT":0},{"OBJECT_NAME":"QIANFAN-67","OBJECT_ID":"2025-016N","EPOCH":"2026-07-13T20:14:32.473824","CLASSIFICATION_TYPE":"U","MEAN_MOTION":13.51011647,"ECCENTRICITY":0.0017064,"INCLINATION":88.9711,"RA_OF_ASC_NODE":80.9413,"ARG_OF_PERICENTER":88.4264,"MEAN_ANOMALY":271.8841,"EPHEMERIS_TYPE":0,"NORAD_CAT_ID":62797,"ELEMENT_SET_NO":999,"REV_AT_EPOCH":7603,"BSTAR":0.00011352,"MEAN_MOTION_DOT":8.6e-7,"MEAN_MOTION_DDOT":0},{"OBJECT_NAME":"QIANFAN-68","OBJECT_ID":"2025-016P","EPOCH":"2026-07-13T20:02:28.334688","CLASSIFICATION_TYPE":"U","MEAN_MOTION":13.51024334,"ECCENTRICITY":0.0017151,"INCLINATION":88.9714,"RA_OF_ASC_NODE":80.9949,"ARG_OF_PERICENTER":86.5739,"MEAN_ANOMALY":273.7373,"EPHEMERIS_TYPE":0,"NORAD_CAT_ID":62798,"ELEMENT_SET_NO":999,"REV_AT_EPOCH":7601,"BSTAR":0.00011066,"MEAN_MOTION_DOT":8.4e-7,"MEAN_MOTION_DDOT":0},{"OBJECT_NAME":"QIANFAN-69","OBJECT_ID":"2025-016Q","EPOCH":"2026-07-13T20:26:08.880288","CLASSIFICATION_TYPE":"U","MEAN_MOTION":13.51018181,"ECCENTRICITY":0.001788,"INCLINATION":88.9693,"RA_OF_ASC_NODE":80.8172,"ARG_OF_PERICENTER":87.8542,"MEAN_ANOMALY":272.4656,"EPHEMERIS_TYPE":0,"NORAD_CAT_ID":62799,"ELEMENT_SET_NO":999,"REV_AT_EPOCH":7605,"BSTAR":0.00011822,"MEAN_MOTION_DOT":8.9e-7,"MEAN_MOTION_DDOT":0},{"OBJECT_NAME":"QIANFAN-70","OBJECT_ID":"2025-016R","EPOCH":"2026-07-13T20:49:57.119808","CLASSIFICATION_TYPE":"U","MEAN_MOTION":13.51016565,"ECCENTRICITY":0.0017515,"INCLINATION":88.9714,"RA_OF_ASC_NODE":80.9985,"ARG_OF_PERICENTER":79.3206,"MEAN_ANOMALY":280.9916,"EPHEMERIS_TYPE":0,"NORAD_CAT_ID":62800,"ELEMENT_SET_NO":999,"REV_AT_EPOCH":7601,"BSTAR":0.00013726,"MEAN_MOTION_DOT":0.00000101,"MEAN_MOTION_DDOT":0},{"OBJECT_NAME":"QIANFAN-71","OBJECT_ID":"2025-016S","EPOCH":"2026-07-13T20:44:12.058080","CLASSIFICATION_TYPE":"U","MEAN_MOTION":13.51010911,"ECCENTRICITY":0.0017765,"INCLINATION":88.9707,"RA_OF_ASC_NODE":80.9656,"ARG_OF_PERICENTER":90.9954,"MEAN_ANOMALY":269.3233,"EPHEMERIS_TYPE":0,"NORAD_CAT_ID":62801,"ELEMENT_SET_NO":999,"REV_AT_EPOCH":7601,"BSTAR":0.00014011,"MEAN_MOTION_DOT":0.00000103,"MEAN_MOTION_DDOT":0},{"OBJECT_NAME":"QIANFAN-72","OBJECT_ID":"2025-016T","EPOCH":"2026-07-13T21:07:39.268704","CLASSIFICATION_TYPE":"U","MEAN_MOTION":13.51014055,"ECCENTRICITY":0.0020947,"INCLINATION":88.9698,"RA_OF_ASC_NODE":80.9564,"ARG_OF_PERICENTER":97.736,"MEAN_ANOMALY":262.6171,"EPHEMERIS_TYPE":0,"NORAD_CAT_ID":62802,"ELEMENT_SET_NO":999,"REV_AT_EPOCH":7600,"BSTAR":0.00012014,"MEAN_MOTION_DOT":9e-7,"MEAN_MOTION_DDOT":0},{"OBJECT_NAME":"QIANFAN-73","OBJECT_ID":"2025-046A","EPOCH":"2026-07-13T19:59:51.130752","CLASSIFICATION_TYPE":"U","MEAN_MOTION":13.51014531,"ECCENTRICITY":0.0013928,"INCLINATION":88.9723,"RA_OF_ASC_NODE":297.9149,"ARG_OF_PERICENTER":219.824,"MEAN_ANOMALY":140.189,"EPHEMERIS_TYPE":0,"NORAD_CAT_ID":63159,"ELEMENT_SET_NO":999,"REV_AT_EPOCH":7618,"BSTAR":0.00013839,"MEAN_MOTION_DOT":0.00000101,"MEAN_MOTION_DDOT":0},{"OBJECT_NAME":"QIANFAN-74","OBJECT_ID":"2025-046B","EPOCH":"2026-07-13T19:36:26.856864","CLASSIFICATION_TYPE":"U","MEAN_MOTION":13.51022284,"ECCENTRICITY":0.000251,"INCLINATION":88.9723,"RA_OF_ASC_NODE":297.8063,"ARG_OF_PERICENTER":106.4407,"MEAN_ANOMALY":253.702,"EPHEMERIS_TYPE":0,"NORAD_CAT_ID":63160,"ELEMENT_SET_NO":999,"REV_AT_EPOCH":7624,"BSTAR":0.00012172,"MEAN_MOTION_DOT":9.1e-7,"MEAN_MOTION_DDOT":0},{"OBJECT_NAME":"QIANFAN-75","OBJECT_ID":"2025-046C","EPOCH":"2026-07-13T19:18:32.732064","CLASSIFICATION_TYPE":"U","MEAN_MOTION":13.5101495,"ECCENTRICITY":0.0014903,"INCLINATION":88.9724,"RA_OF_ASC_NODE":298.0442,"ARG_OF_PERICENTER":223.7884,"MEAN_ANOMALY":136.2086,"EPHEMERIS_TYPE":0,"NORAD_CAT_ID":63161,"ELEMENT_SET_NO":999,"REV_AT_EPOCH":7611,"BSTAR":0.0001442,"MEAN_MOTION_DOT":0.00000105,"MEAN_MOTION_DDOT":0},{"OBJECT_NAME":"QIANFAN-76","OBJECT_ID":"2025-046D","EPOCH":"2026-07-13T19:12:32.842368","CLASSIFICATION_TYPE":"U","MEAN_MOTION":13.51013559,"ECCENTRICITY":0.0012443,"INCLINATION":88.9724,"RA_OF_ASC_NODE":298.0245,"ARG_OF_PERICENTER":222.9378,"MEAN_ANOMALY":137.0802,"EPHEMERIS_TYPE":0,"NORAD_CAT_ID":63162,"ELEMENT_SET_NO":999,"REV_AT_EPOCH":7612,"BSTAR":0.00015996,"MEAN_MOTION_DOT":0.00000115,"MEAN_MOTION_DDOT":0},{"OBJECT_NAME":"QIANFAN-77","OBJECT_ID":"2025-046E","EPOCH":"2026-07-13T19:54:19.615680","CLASSIFICATION_TYPE":"U","MEAN_MOTION":13.96220919,"ECCENTRICITY":0.0017023,"INCLINATION":88.9727,"RA_OF_ASC_NODE":294.2733,"ARG_OF_PERICENTER":131.2998,"MEAN_ANOMALY":228.9648,"EPHEMERIS_TYPE":0,"NORAD_CAT_ID":63163,"ELEMENT_SET_NO":999,"REV_AT_EPOCH":7818,"BSTAR":0.00013409,"MEAN_MOTION_DOT":0.00000198,"MEAN_MOTION_DDOT":0},{"OBJECT_NAME":"QIANFAN-78","OBJECT_ID":"2025-046F","EPOCH":"2026-07-13T20:11:51.603072","CLASSIFICATION_TYPE":"U","MEAN_MOTION":13.51008882,"ECCENTRICITY":0.0013724,"INCLINATION":88.9724,"RA_OF_ASC_NODE":297.8822,"ARG_OF_PERICENTER":225.86,"MEAN_ANOMALY":134.1424,"EPHEMERIS_TYPE":0,"NORAD_CAT_ID":63164,"ELEMENT_SET_NO":999,"REV_AT_EPOCH":7620,"BSTAR":0.0001472,"MEAN_MOTION_DOT":0.00000107,"MEAN_MOTION_DDOT":0},{"OBJECT_NAME":"QIANFAN-79","OBJECT_ID":"2025-046G","EPOCH":"2026-07-13T19:06:38.160000","CLASSIFICATION_TYPE":"U","MEAN_MOTION":13.51019116,"ECCENTRICITY":0.0013576,"INCLINATION":88.9727,"RA_OF_ASC_NODE":298.0021,"ARG_OF_PERICENTER":224.3047,"MEAN_ANOMALY":135.7019,"EPHEMERIS_TYPE":0,"NORAD_CAT_ID":63165,"ELEMENT_SET_NO":999,"REV_AT_EPOCH":7614,"BSTAR":0.0001477,"MEAN_MOTION_DOT":0.00000107,"MEAN_MOTION_DDOT":0},{"OBJECT_NAME":"QIANFAN-80","OBJECT_ID":"2025-046H","EPOCH":"2026-07-13T19:30:27.808704","CLASSIFICATION_TYPE":"U","MEAN_MOTION":13.51016306,"ECCENTRICITY":0.0012275,"INCLINATION":88.9724,"RA_OF_ASC_NODE":297.7015,"ARG_OF_PERICENTER":228.4426,"MEAN_ANOMALY":131.5673,"EPHEMERIS_TYPE":0,"NORAD_CAT_ID":63166,"ELEMENT_SET_NO":999,"REV_AT_EPOCH":7630,"BSTAR":0.00013321,"MEAN_MOTION_DOT":9.8e-7,"MEAN_MOTION_DDOT":0}]}
